1 00029U 60002B   24362.63104946  .00002121  00000-0  32310-3 0  9997
2 00029  48.3785  52.3005 0021883 119.1831 241.1275 14.77412962462758
1    29U 60002B   24363.51025261  .00002097  00000-0  31974-3 0  9994
2    29  48.3786  48.1313 0021894 123.0120 237.2900 14.77416965462995
1 00029U 60002B   24363.57788348  .00002160  00000-0  32854-3 0  9991
2 00029  48.3786  47.8107 0021895 123.3063 236.9951 14.77417491462898
1 00029U 60002B   24363.84840684  .00002165  00000-0  32925-3 0  9997
2 00029  48.3786  46.5278 0021906 124.5139 235.7846 14.77418810462934
1 00029U 60002B   24364.52471435  .00002233  00000-0  33853-3 0  9994
2 00029  48.3785  43.3206 0021932 127.4673 232.8239 14.77422131463030
1 00029U 60002B   24364.79523679  .00002238  00000-0  33927-3 0  9998
2 00029  48.3785  42.0377 0021934 128.6496 231.6384 14.77423509463075
1    29U 60002B   24364.79523679  .00002238  00000-0  33927-3 0  9998
2    29  48.3785  42.0377 0021934 128.6496 231.6384 14.77423509463187
1 00029U 60002B   24365.53917223  .00002850  00000-0  42382-3 0  9998
2 00029  48.3785  38.5099 0021955 131.8799 228.3992 14.77429013463187
1 00029U 60002B   24365.80969347  .00002887  00000-0  42893-3 0  9999
2 00029  48.3785  37.2270 0021967 133.0788 227.1968 14.77430633463224
1    29U 60002B   24365.80969347  .00002887  00000-0  42893-3 0  9999
2    29  48.3785  37.2270 0021967 133.0788 227.1968 14.77430633463336
1 00029U 60002B   24366.55362612  .00002750  00000-0  40990-3 0  9999
2 00029  48.3785  33.6990 0021987 136.3016 223.9642 14.77433957463332
1    29U 60002B   25001.16229617  .00002809  00000-0  41802-3 0  9998
2    29  48.3785  30.8123 0022006 138.9700 221.2873 14.77437595463531
1 00029U 60002B   25001.56807466  .00003034  00000-0  44914-3 0  9994
2 00029  48.3785  28.8880 0022020 140.7170 219.5345 14.77441029463481
1    29U 60002B   25002.17673781  .00006256  00000-0  89402-3 0  9993
2    29  48.3785  26.0013 0022057 143.3737 216.8688 14.77456808463680
1 00029U 60002B   25002.44725957  .00003646  00000-0  53362-3 0  9992
2 00029  48.3782  24.7184 0022040 144.5393 215.6990 14.77448090463614
1 00029U 60002B   25003.52932923  .00002216  00000-0  33595-3 0  9993
2 00029  48.3786  19.5865 0022075 149.2343 210.9869 14.77451015463772
1 00029U 60002B   25003.73221675  .00002124  00000-0  32331-3 0  9996
2 00029  48.3786  18.6244 0022092 150.1336 210.0843 14.77452034463804
1 00029U 60002B   25004.47613631  .00002087  00000-0  31804-3 0  9997
2 00029  48.3787  15.0963 0022121 153.3521 206.8533 14.77456348463911
1    29U 60002B   25004.47613631  .00002087  00000-0  31804-3 0  9997
2    29  48.3787  15.0963 0022121 153.3521 206.8533 14.77456348464024
1 00029U 60002B   25004.74665191  .00001634  00000-0  25553-3 0  9996
2 00029  48.3787  13.8134 0022124 154.5435 205.6573 14.77456601463954
1    29U 60002B   25005.49056835  .00002183  00000-0  33128-3 0  9995
2    29  48.3787  10.2852 0022154 157.7447 202.4432 14.77462457464173
1 00029U 60002B   25005.69345439  .00002033  00000-0  31063-3 0  9998
2 00029  48.3788   9.3231 0022159 158.6270 201.5573 14.77463100464096
1 00029U 60002B   25006.36974025  .00002110  00000-0  32125-3 0  9998
2 00029  48.3788   6.1157 0022188 161.5389 198.6333 14.77466739464196
1 00029U 60002B   25006.97839633  .00001992  00000-0  30479-3 0  9997
2 00029  48.3788   3.2290 0022207 164.1841 195.9770 14.77469307464285
1    29U 60002B   25007.18128143  .00001865  00000-0  28728-3 0  9991
2    29  48.3789   2.2668 0022226 165.0656 195.0918 14.77469897464424
1 00029U 60002B   25007.45179482  .00001818  00000-0  28084-3 0  9996
2 00029  48.3788   0.9840 0022231 166.2058 193.9467 14.77471006464358
1 00029U 60002B   25007.65467944  .00001764  00000-0  27333-3 0  9997
2 00029  48.3789   0.0218 0022237 167.0928 193.0559 14.77471933464385
1    29U 60002B   25008.19570532  .00001734  00000-0  26923-3 0  9996
2    29  48.3789 357.4559 0022242 169.3866 190.7521 14.77474153464575
1 00029U 60002B   25008.46621791  .00001618  00000-0  25307-3 0  9996
2 00029  48.3788 356.1730 0022265 170.5637 189.5699 14.77474957464503
1 00029U 60002B   25008.66910234  .00001376  00000-0  21974-3 0  9998
2 00029  48.3789 355.2108 0022284 171.4523 188.6774 14.77474996464538
1    29U 60002B   25009.21012683  .00001314  00000-0  21114-3 0  9999
2    29  48.3789 352.6448 0022328 173.8179 186.3014 14.77476799464724
1 00029U 60002B   25009.34538294  .00001367  00000-0  21842-3 0  9990
2 00029  48.3788 352.0034 0022333 174.3855 185.7313 14.77477417464634
1 00029U 60002B   25009.95403444  .00001475  00000-0  23338-3 0  9997
2 00029  48.3789 349.1167 0022357 177.0119 183.0932 14.77479948464727
1    29U 60002B   25010.22454638  .00001488  00000-0  23511-3 0  9997
2    29  48.3800 347.8338 0022354 178.1307 181.9693 14.77480309464874
1 00029U 60002B   25010.42743030  .00001406  00000-0  22379-3 0  9997
2 00029  48.3800 346.8717 0022358 178.9927 181.1035 14.77480559464794
1 00029U 60002B   25010.96845226  .00001396  00000-0  22237-3 0  9997
2 00029  48.3800 344.3058 0022384 181.3144 178.7713 14.77482691464876
1 00029U 60002B   25011.37421843  .00001440  00000-0  22844-3 0  9992
2 00029  48.3800 342.3814 0022395 183.0512 177.0267 14.77484462464935
1    29U 60002B   25011.37421843  .00001440  00000-0  22844-3 0  9992
2    29  48.3800 342.3814 0022395 183.0512 177.0267 14.77484462465048
1 00029U 60002B   25011.64472947  .00001286  00000-0  20721-3 0  9993
2 00029  48.3800 341.0985 0022404 184.2173 175.8554 14.77484512464972
1 00029U 60002B   25012.38863349  .00001320  00000-0  21184-3 0  9998
2 00029  48.3800 337.5705 0022435 187.3844 172.6742 14.77487117465086
1    29U 60002B   25012.38863349  .00001320  00000-0  21184-3 0  9998
2    29  48.3800 337.5705 0022435 187.3844 172.6742 14.77487117465198
1 00029U 60002B   25012.59151608  .00001266  00000-0  20441-3 0  9993
2 00029  48.3800 336.6084 0022443 188.2581 171.7965 14.77487537465110
1 00029U 60002B   25013.33541850  .00001315  00000-0  21120-3 0  9998
2 00029  48.3799 333.0803 0022475 191.4200 168.6205 14.77490188465226
1 00029U 60002B   25013.60592834  .00001200  00000-0  19533-3 0  9994
2 00029  48.3800 331.7973 0022484 192.5850 167.4504 14.77490392465265
1    29U 60002B   25013.60592834  .00001200  00000-0  19533-3 0  9994
2    29  48.3800 331.7973 0022484 192.5850 167.4504 14.77490392465377
1 00029U 60002B   25014.28220192  .00001254  00000-0  20274-3 0  9997
2 00029  48.3799 328.5900 0022517 195.4611 164.5617 14.77492787465364
1 00029U 60002B   25015.22898327  .00001249  00000-0  20200-3 0  9996
2 00029  48.3798 324.0997 0022556 199.5008 160.5045 14.77495723465508
1    29U 60002B   25015.22898327  .00001249  00000-0  20200-3 0  9996
2    29  48.3798 324.0997 0022556 199.5008 160.5045 14.77495723465610
1 00029U 60002B   25016.24338998  .00001242  00000-0  20103-3 0  9997
2 00029  48.3798 319.2887 0022592 203.8168 156.1701 14.77498834465650
1 00029U 60002B   25016.85203261  .00001300  00000-0  20909-3 0  9997
2 00029  48.3797 316.4019 0022621 206.4149 153.5612 14.77501121465742
1    29U 60002B   25016.85203261  .00001300  00000-0  20909-3 0  9997
2    29  48.3797 316.4019 0022621 206.4149 153.5612 14.77501121465854
1 00029U 60002B   25017.52830088  .00001421  00000-0  22565-3 0  9999
2 00029  48.3797 313.1946 0022651 209.2972 150.6672 14.77504141465843
1 00029U 60002B   25017.86643482  .00001418  00000-0  22529-3 0  9992
2 00029  48.3797 311.5908 0022673 210.7355 149.2231 14.77505260465892
1    29U 60002B   25017.86643482  .00001418  00000-0  22529-3 0  9992
2    29  48.3797 311.5908 0022673 210.7355 149.2231 14.77505260466006
1 00029U 60002B   25018.20456859  .00001516  00000-0  23883-3 0  9994
2 00029  48.3796 309.9872 0022672 212.1462 147.8069 14.77506902465949
1    29U 60002B   25019.15134123  .00001593  00000-0  24941-3 0  9997
2    29  48.3796 305.4968 0022710 216.1547 143.7831 14.77510659466191
1 00029U 60002B   25019.21896773  .00001609  00000-0  25165-3 0  9997
2 00029  48.3796 305.1761 0022716 216.4407 143.4961 14.77511001466095
1 00029U 60002B   25019.82760562  .00001722  00000-0  26722-3 0  9996
2 00029  48.3795 302.2893 0022737 218.9989 140.9285 14.77513964466184
1 00029U 60002B   25020.09811073  .00001850  00000-0  28491-3 0  9998
2 00029  48.3795 301.0064 0022743 220.1320 139.7914 14.77515807466220
1 00029U 60002B   25020.84199980  .00001769  00000-0  27369-3 0  9999
2 00029  48.3794 297.4782 0022771 223.2646 136.6479 14.77518314466330
1    29U 60002B   25020.84199980  .00001769  00000-0  27369-3 0  9999
2    29  48.3794 297.4782 0022771 223.2646 136.6479 14.77518314466442
1 00029U 60002B   25021.11250418  .00001960  00000-0  30002-3 0  9995
2 00029  48.3794 296.1953 0022773 224.3901 135.5186 14.77520526466379
1 00029U 60002B   25021.78876532  .00001905  00000-0  29232-3 0  9991
2 00029  48.3780 292.9878 0022816 227.2180 132.6815 14.77522956466470
1 00029U 60002B   25022.12689514  .00001977  00000-0  30232-3 0  9993
2 00029  48.3780 291.3842 0022819 228.6316 131.2635 14.77524693466524
1    29U 60002B   25022.12689514  .00001977  00000-0  30232-3 0  9993
2    29  48.3780 291.3842 0022819 228.6316 131.2635 14.77524693466636
1 00029U 60002B   25023.14128238  .00001887  00000-0  28989-3 0  9993
2 00029  48.3777 286.5732 0022860 232.9031 126.9793 14.77529141466677
1    29U 60002B   25023.14128238  .00001887  00000-0  28989-3 0  9993
2    29  48.3777 286.5732 0022860 232.9031 126.9793 14.77529141466789
1 00029U 60002B   25023.74991358  .00001907  00000-0  29265-3 0  9991
2 00029  48.3777 283.6864 0022865 235.4543 124.4211 14.77531905466761
1 00029U 60002B   25024.42616887  .00002073  00000-0  31545-3 0  9997
2 00029  48.3775 280.4790 0022882 238.3251 121.5431 14.77535527466866
1    29U 60002B   25024.83192145  .00002129  00000-0  32321-3 0  9993
2    29  48.3774 278.5545 0022896 240.0228 119.8412 14.77537536467031
1 00029U 60002B   25024.89954679  .00001841  00000-0  28349-3 0  9992
2 00029  48.3774 278.2338 0022897 240.3112 119.5521 14.77537004466930
